{
  "type": "FeatureCollection",
  "features": [
    {
      "type": "Feature",
      "properties": {
        "norad_id": 31843,
        "name": "FENGYUN 1C DEB",
        "group": "fengyun-1c-debris",
        "lat": 76.68921129683626,
        "lon": 141.59191654042797,
        "alt_km": 1010.9816767954271,
        "timestamp": "2025-12-02T06:27:53.297791+00:00",
        "meta_object_name": "FENGYUN 1C DEB",
        "meta_object_id": "1999-025CJH",
        "meta_epoch": "2025-11-30T16:12:01.946592",
        "meta_mean_motion": 13.33408677,
        "meta_eccentricity": 0.06421204,
        "meta_inclination": 99.2808,
        "meta_ra_of_asc_node": 276.419,
        "meta_arg_of_pericenter": 23.7479,
        "meta_mean_anomaly": 339.1932,
        "meta_ephemeris_type": 0,
        "meta_classification_type": "U",
        "meta_norad_cat_id": 31843,
        "meta_element_set_no": 999,
        "meta_rev_at_epoch": 64535,
        "meta_bstar": 0.0062667662,
        "meta_mean_motion_dot": 0.0001,
        "meta_mean_motion_ddot": 0,
        "tle_line1": "1 31843U 99025CJH 25334.67502253  .00010000  00000+0  62668-2 0  9991",
        "tle_line2": "2 31843  99.2808 276.4190 0642120  23.7479 339.1932 13.33408677645358"
      },
      "geometry": {
        "type": "Point",
        "coordinates": [
          141.59191654042797,
          76.68921129683626
        ]
      }
    },
    {
      "type": "Feature",
      "properties": {
        "norad_id": 31844,
        "name": "FENGYUN 1C DEB",
        "group": "fengyun-1c-debris",
        "lat": -13.137877583860607,
        "lon": 140.80467687643002,
        "alt_km": 905.1584711987098,
        "timestamp": "2025-12-02T06:27:53.297801+00:00",
        "meta_object_name": "FENGYUN 1C DEB",
        "meta_object_id": "1999-025CJJ",
        "meta_epoch": "2025-11-30T16:20:55.349088",
        "meta_mean_motion": 14.19670592,
        "meta_eccentricity": 0.01037427,
        "meta_inclination": 100.3009,
        "meta_ra_of_asc_node": 321.3925,
        "meta_arg_of_pericenter": 23.7692,
        "meta_mean_anomaly": 336.8222,
        "meta_ephemeris_type": 0,
        "meta_classification_type": "U",
        "meta_norad_cat_id": 31844,
        "meta_element_set_no": 999,
        "meta_rev_at_epoch": 95161,
        "meta_bstar": 0.00078280219,
        "meta_mean_motion_dot": 1.689e-05,
        "meta_mean_motion_ddot": 0,
        "tle_line1": "1 31844U 99025CJJ 25334.68119617  .00001689  00000+0  78280-3 0  9992",
        "tle_line2": "2 31844 100.3009 321.3925 0103742  23.7692 336.8222 14.19670592951618"
      },
      "geometry": {
        "type": "Point",
        "coordinates": [
          140.80467687643002,
          -13.137877583860607
        ]
      }
    },
    {
      "type": "Feature",
      "properties": {
        "norad_id": 31850,
        "name": "FENGYUN 1C DEB",
        "group": "fengyun-1c-debris",
        "lat": 22.11500165564046,
        "lon": -157.27778937583298,
        "alt_km": 427.76855579480343,
        "timestamp": "2025-12-02T06:27:53.297811+00:00",
        "meta_object_name": "FENGYUN 1C DEB",
        "meta_object_id": "1999-025CJQ",
        "meta_epoch": "2025-12-01T09:22:50.054304",
        "meta_mean_motion": 15.3001225,
        "meta_eccentricity": 0.00813453,
        "meta_inclination": 98.5763,
        "meta_ra_of_asc_node": 18.1928,
        "meta_arg_of_pericenter": 128.3704,
        "meta_mean_anomaly": 232.4878,
        "meta_ephemeris_type": 0,
        "meta_classification_type": "U",
        "meta_norad_cat_id": 31850,
        "meta_element_set_no": 999,
        "meta_rev_at_epoch": 65655,
        "meta_bstar": 0.0035100928,
        "meta_mean_motion_dot": 0.00114209,
        "meta_mean_motion_ddot": 0,
        "tle_line1": "1 31850U 99025CJQ 25335.39085711  .00114209  00000+0  35101-2 0  9992",
        "tle_line2": "2 31850  98.5763  18.1928 0081345 128.3704 232.4878 15.30012250656552"
      },
      "geometry": {
        "type": "Point",
        "coordinates": [
          -157.27778937583298,
          22.11500165564046
        ]
      }
    },
    {
      "type": "Feature",
      "properties": {
        "norad_id": 31854,
        "name": "FENGYUN 1C DEB",
        "group": "fengyun-1c-debris",
        "lat": 49.21043496846822,
        "lon": -30.63649277577685,
        "alt_km": 904.4584789458149,
        "timestamp": "2025-12-02T06:27:53.297824+00:00",
        "meta_object_name": "FENGYUN 1C DEB",
        "meta_object_id": "1999-025CJU",
        "meta_epoch": "2025-12-01T19:57:19.630080",
        "meta_mean_motion": 14.03054994,
        "meta_eccentricity": 0.0071943,
        "meta_inclination": 98.8478,
        "meta_ra_of_asc_node": 339.3377,
        "meta_arg_of_pericenter": 171.1748,
        "meta_mean_anomaly": 189.0702,
        "meta_ephemeris_type": 0,
        "meta_classification_type": "U",
        "meta_norad_cat_id": 31854,
        "meta_element_set_no": 999,
        "meta_rev_at_epoch": 69119,
        "meta_bstar": 0.00022923,
        "meta_mean_motion_dot": 3.22e-06,
        "meta_mean_motion_ddot": 0,
        "tle_line1": "1 31854U 99025CJU 25335.83147720  .00000322  00000+0  22923-3 0  9993",
        "tle_line2": "2 31854  98.8478 339.3377 0071943 171.1748 189.0702 14.03054994691197"
      },
      "geometry": {
        "type": "Point",
        "coordinates": [
          -30.63649277577685,
          49.21043496846822
        ]
      }
    },
    {
      "type": "Feature",
      "properties": {
        "norad_id": 31857,
        "name": "FENGYUN 1C DEB",
        "group": "fengyun-1c-debris",
        "lat": -73.77288744355495,
        "lon": 31.54091658864267,
        "alt_km": 830.3015687970483,
        "timestamp": "2025-12-02T06:27:53.297836+00:00",
        "meta_object_name": "FENGYUN 1C DEB",
        "meta_object_id": "1999-025CJX",
        "meta_epoch": "2025-11-26T07:59:14.573184",
        "meta_mean_motion": 13.61833891,
        "meta_eccentricity": 0.03084631,
        "meta_inclination": 96.1907,
        "meta_ra_of_asc_node": 5.8641,
        "meta_arg_of_pericenter": 327.9886,
        "meta_mean_anomaly": 30.2848,
        "meta_ephemeris_type": 0,
        "meta_classification_type": "U",
        "meta_norad_cat_id": 31857,
        "meta_element_set_no": 999,
        "meta_rev_at_epoch": 61406,
        "meta_bstar": 0.0020039565,
        "meta_mean_motion_dot": 2.094e-05,
        "meta_mean_motion_ddot": 0,
        "tle_line1": "1 31857U 99025CJX 25330.33280756  .00002094  00000+0  20040-2 0  9998",
        "tle_line2": "2 31857  96.1907   5.8641 0308463 327.9886  30.2848 13.61833891614064"
      },
      "geometry": {
        "type": "Point",
        "coordinates": [
          31.54091658864267,
          -73.77288744355495
        ]
      }
    },
    {
      "type": "Feature",
      "properties": {
        "norad_id": 31861,
        "name": "FENGYUN 1C DEB",
        "group": "fengyun-1c-debris",
        "lat": 2.4495939341241906,
        "lon": 166.27446784507245,
        "alt_km": 1402.3886806145256,
        "timestamp": "2025-12-02T06:27:53.297846+00:00",
        "meta_object_name": "FENGYUN 1C DEB",
        "meta_object_id": "1999-025CKB",
        "meta_epoch": "2025-11-30T18:20:57.621120",
        "meta_mean_motion": 13.30200627,
        "meta_eccentricity": 0.04966148,
        "meta_inclination": 102.3423,
        "meta_ra_of_asc_node": 165.0071,
        "meta_arg_of_pericenter": 230.9853,
        "meta_mean_anomaly": 124.6046,
        "meta_ephemeris_type": 0,
        "meta_classification_type": "U",
        "meta_norad_cat_id": 31861,
        "meta_element_set_no": 999,
        "meta_rev_at_epoch": 66608,
        "meta_bstar": 0.0034105388,
        "meta_mean_motion_dot": 3.105e-05,
        "meta_mean_motion_ddot": 0,
        "tle_line1": "1 31861U 99025CKB 25334.76455580  .00003105  00000+0  34105-2 0  9994",
        "tle_line2": "2 31861 102.3423 165.0071 0496614 230.9853 124.6046 13.30200627666089"
      },
      "geometry": {
        "type": "Point",
        "coordinates": [
          166.27446784507245,
          2.4495939341241906
        ]
      }
    },
    {
      "type": "Feature",
      "properties": {
        "norad_id": 31877,
        "name": "FENGYUN 1C DEB",
        "group": "fengyun-1c-debris",
        "lat": -40.332154652250566,
        "lon": -142.91284964736636,
        "alt_km": 572.6498298344886,
        "timestamp": "2025-12-02T06:27:53.297856+00:00",
        "meta_object_name": "FENGYUN 1C DEB",
        "meta_object_id": "1999-025CKC",
        "meta_epoch": "2025-12-01T10:16:39.574848",
        "meta_mean_motion": 15.0109987,
        "meta_eccentricity": 0.01042211,
        "meta_inclination": 99.0018,
        "meta_ra_of_asc_node": 43.8485,
        "meta_arg_of_pericenter": 316.2991,
        "meta_mean_anomaly": 43.0012,
        "meta_ephemeris_type": 0,
        "meta_classification_type": "U",
        "meta_norad_cat_id": 31877,
        "meta_element_set_no": 999,
        "meta_rev_at_epoch": 98872,
        "meta_bstar": 0.00090370835,
        "meta_mean_motion_dot": 0.00012921,
        "meta_mean_motion_ddot": 0,
        "tle_line1": "1 31877U 99025CKC 25335.42823582  .00012921  00000+0  90371-3 0  9990",
        "tle_line2": "2 31877  99.0018  43.8485 0104221 316.2991  43.0012 15.01099870988722"
      },
      "geometry": {
        "type": "Point",
        "coordinates": [
          -142.91284964736636,
          -40.332154652250566
        ]
      }
    }
  ]
}